ATLAS CENTAUR R/B       
1 06155U 72065B   25362.06761737  .00001568  00000+0  21787-3 0  9999
2 06155  35.0025   5.4088 0033351 128.4998 231.8700 14.77450221830662
SL-8 R/B                
1 08459U 75112B   25363.73408313  .00000423  00000+0  14794-3 0  9996
2 08459  74.0601 147.5990 0016717 257.3393 102.5892 14.38157428621813
SL-3 R/B                
1 10114U 77057B   25363.81019293  .00017371  00000+0  39040-3 0  9992
2 10114  97.5689 167.8085 0007582 166.7918 193.3529 15.43384777657546
SEASAT 1                
1 10967U 78064A   25363.83805712  .00000651  00000+0  22065-3 0  9990
2 10967 108.0142 338.9083 0001261 258.5152 101.5852 14.46081811496413
SL-14 R/B               
1 11267U 79011B   25363.82524757  .00001071  00000+0  10360-3 0  9995
2 11267  82.5240 162.8397 0014758 293.2527  66.7139 14.91793959518363
SL-8 R/B                
1 11574U 79089B   25363.76068977  .00000367  00000+0  11889-3 0  9995
2 11574  74.0670 220.4770 0014854  47.9660 312.2758 14.42294867426029
SL-14 R/B               
1 11672U 80005B   25363.52396783  .00000900  00000+0  88755-4 0  9997
2 11672  82.5139  13.7793 0016824  41.9913 318.2593 14.90813355466034
SL-8 R/B                
1 12139U 81003B   25363.73260628  .00026870  00000+0  71043-3 0  9991
2 12139  82.9360 354.5676 0276715  61.9576 300.9343 15.07615656304128
SL-3 R/B                
1 12465U 81046B   25363.78543483  .00017076  00000+0  42470-3 0  9998
2 12465  81.2324  13.5401 0017989 261.5184  98.4019 15.39990484427663
SL-3 R/B                
1 12904U 81103B   25363.83792022  .00009667  00000+0  44076-3 0  9992
2 12904  81.1593 295.3271 0013289 153.3896 206.8019 15.20450803962610
SL-3 R/B                
1 13068U 82013B   25363.81194559  .00007032  00000+0  31134-3 0  9999
2 13068  81.1743 242.6251 0023932  56.3749 303.9761 15.21246186393728
SL-3 R/B                
1 13154U 82039B   25363.80695782  .00004593  00000+0  28133-3 0  9990
2 13154  81.1701 296.4605 0029493 194.2575 165.7822 15.09632771371098
