CCSDS_OMM_VERS = 2.0
CREATION_DATE  = 
ORIGINATOR     = 

OBJECT_NAME    = ATLAS CENTAUR R/B
OBJECT_ID      = 1972-065B
CENTER_NAME    = EARTH
REF_FRAME      = TEME
TIME_SYSTEM    = UTC
MEAN_ELEMENT_THEORY = SGP/SGP4

EPOCH          = 2025-12-28T01:37:22.140768
MEAN_MOTION    = 14.77450221
ECCENTRICITY   = .00333515
INCLINATION    = 35.0025
RA_OF_ASC_NODE = 5.4088
ARG_OF_PERICENTER = 128.4998
MEAN_ANOMALY   = 231.8700

EPHEMERIS_TYPE = 0
CLASSIFICATION_TYPE = U
NORAD_CAT_ID   = 6155
ELEMENT_SET_NO = 999
REV_AT_EPOCH   = 83066
BSTAR          = .2178713E-3
MEAN_MOTION_DOT = .1568E-4
MEAN_MOTION_DDOT = 0

CCSDS_OMM_VERS = 2.0
CREATION_DATE  = 
ORIGINATOR     = 

OBJECT_NAME    = SL-8 R/B
OBJECT_ID      = 1975-112B
CENTER_NAME    = EARTH
REF_FRAME      = TEME
TIME_SYSTEM    = UTC
MEAN_ELEMENT_THEORY = SGP/SGP4

EPOCH          = 2025-12-29T17:37:04.782432
MEAN_MOTION    = 14.38157428
ECCENTRICITY   = .0016717
INCLINATION    = 74.0601
RA_OF_ASC_NODE = 147.5990
ARG_OF_PERICENTER = 257.3393
MEAN_ANOMALY   = 102.5892

EPHEMERIS_TYPE = 0
CLASSIFICATION_TYPE = U
NORAD_CAT_ID   = 8459
ELEMENT_SET_NO = 999
REV_AT_EPOCH   = 62181
BSTAR          = .14794E-3
MEAN_MOTION_DOT = .423E-5
MEAN_MOTION_DDOT = 0

CCSDS_OMM_VERS = 2.0
CREATION_DATE  = 
ORIGINATOR     = 

OBJECT_NAME    = SL-3 R/B
OBJECT_ID      = 1977-057B
CENTER_NAME    = EARTH
REF_FRAME      = TEME
TIME_SYSTEM    = UTC
MEAN_ELEMENT_THEORY = SGP/SGP4

EPOCH          = 2025-12-29T19:26:40.669152
MEAN_MOTION    = 15.43384777
ECCENTRICITY   = .0007582
INCLINATION    = 97.5689
RA_OF_ASC_NODE = 167.8085
ARG_OF_PERICENTER = 166.7918
MEAN_ANOMALY   = 193.3529

EPHEMERIS_TYPE = 0
CLASSIFICATION_TYPE = U
NORAD_CAT_ID   = 10114
ELEMENT_SET_NO = 999
REV_AT_EPOCH   = 65754
BSTAR          = .3904E-3
MEAN_MOTION_DOT = .17371E-3
MEAN_MOTION_DDOT = 0

CCSDS_OMM_VERS = 2.0
CREATION_DATE  = 
ORIGINATOR     = 

OBJECT_NAME    = SEASAT 1
OBJECT_ID      = 1978-064A
CENTER_NAME    = EARTH
REF_FRAME      = TEME
TIME_SYSTEM    = UTC
MEAN_ELEMENT_THEORY = SGP/SGP4

EPOCH          = 2025-12-29T20:06:48.135168
MEAN_MOTION    = 14.46081811
ECCENTRICITY   = .0001261
INCLINATION    = 108.0142
RA_OF_ASC_NODE = 338.9083
ARG_OF_PERICENTER = 258.5152
MEAN_ANOMALY   = 101.5852

EPHEMERIS_TYPE = 0
CLASSIFICATION_TYPE = U
NORAD_CAT_ID   = 10967
ELEMENT_SET_NO = 999
REV_AT_EPOCH   = 49641
BSTAR          = .22065E-3
MEAN_MOTION_DOT = .651E-5
MEAN_MOTION_DDOT = 0

CCSDS_OMM_VERS = 2.0
CREATION_DATE  = 
ORIGINATOR     = 

OBJECT_NAME    = SL-14 R/B
OBJECT_ID      = 1979-011B
CENTER_NAME    = EARTH
REF_FRAME      = TEME
TIME_SYSTEM    = UTC
MEAN_ELEMENT_THEORY = SGP/SGP4

EPOCH          = 2025-12-29T19:48:21.390048
MEAN_MOTION    = 14.91793959
ECCENTRICITY   = .0014758
INCLINATION    = 82.5240
RA_OF_ASC_NODE = 162.8397
ARG_OF_PERICENTER = 293.2527
MEAN_ANOMALY   = 66.7139

EPHEMERIS_TYPE = 0
CLASSIFICATION_TYPE = U
NORAD_CAT_ID   = 11267
ELEMENT_SET_NO = 999
REV_AT_EPOCH   = 51836
BSTAR          = .1036E-3
MEAN_MOTION_DOT = .1071E-4
MEAN_MOTION_DDOT = 0

CCSDS_OMM_VERS = 2.0
CREATION_DATE  = 
ORIGINATOR     = 

OBJECT_NAME    = SL-8 R/B
OBJECT_ID      = 1979-089B
CENTER_NAME    = EARTH
REF_FRAME      = TEME
TIME_SYSTEM    = UTC
MEAN_ELEMENT_THEORY = SGP/SGP4

EPOCH          = 2025-12-29T18:15:23.596128
MEAN_MOTION    = 14.42294867
ECCENTRICITY   = .0014854
INCLINATION    = 74.0670
RA_OF_ASC_NODE = 220.4770
ARG_OF_PERICENTER = 47.9660
MEAN_ANOMALY   = 312.2758

EPHEMERIS_TYPE = 0
CLASSIFICATION_TYPE = U
NORAD_CAT_ID   = 11574
ELEMENT_SET_NO = 999
REV_AT_EPOCH   = 42602
BSTAR          = .11889E-3
MEAN_MOTION_DOT = .367E-5
MEAN_MOTION_DDOT = 0

CCSDS_OMM_VERS = 2.0
CREATION_DATE  = 
ORIGINATOR     = 

OBJECT_NAME    = SL-14 R/B
OBJECT_ID      = 1980-005B
CENTER_NAME    = EARTH
REF_FRAME      = TEME
TIME_SYSTEM    = UTC
MEAN_ELEMENT_THEORY = SGP/SGP4

EPOCH          = 2025-12-29T12:34:30.820512
MEAN_MOTION    = 14.90813355
ECCENTRICITY   = .00168242
INCLINATION    = 82.5139
RA_OF_ASC_NODE = 13.7793
ARG_OF_PERICENTER = 41.9913
MEAN_ANOMALY   = 318.2593

EPHEMERIS_TYPE = 0
CLASSIFICATION_TYPE = U
NORAD_CAT_ID   = 11672
ELEMENT_SET_NO = 999
REV_AT_EPOCH   = 46603
BSTAR          = .88755031E-4
MEAN_MOTION_DOT = .9E-5
MEAN_MOTION_DDOT = 0

CCSDS_OMM_VERS = 2.0
CREATION_DATE  = 
ORIGINATOR     = 

OBJECT_NAME    = SL-8 R/B
OBJECT_ID      = 1981-003B
CENTER_NAME    = EARTH
REF_FRAME      = TEME
TIME_SYSTEM    = UTC
MEAN_ELEMENT_THEORY = SGP/SGP4

EPOCH          = 2025-12-29T17:34:57.182592
MEAN_MOTION    = 15.07615656
ECCENTRICITY   = .0276715
INCLINATION    = 82.9360
RA_OF_ASC_NODE = 354.5676
ARG_OF_PERICENTER = 61.9576
MEAN_ANOMALY   = 300.9343

EPHEMERIS_TYPE = 0
CLASSIFICATION_TYPE = U
NORAD_CAT_ID   = 12139
ELEMENT_SET_NO = 999
REV_AT_EPOCH   = 30412
BSTAR          = .71043E-3
MEAN_MOTION_DOT = .2687E-3
MEAN_MOTION_DDOT = 0

CCSDS_OMM_VERS = 2.0
CREATION_DATE  = 
ORIGINATOR     = 

OBJECT_NAME    = SL-3 R/B
OBJECT_ID      = 1981-046B
CENTER_NAME    = EARTH
REF_FRAME      = TEME
TIME_SYSTEM    = UTC
MEAN_ELEMENT_THEORY = SGP/SGP4

EPOCH          = 2025-12-29T18:51:01.569312
MEAN_MOTION    = 15.39990484
ECCENTRICITY   = .0017989
INCLINATION    = 81.2324
RA_OF_ASC_NODE = 13.5401
ARG_OF_PERICENTER = 261.5184
MEAN_ANOMALY   = 98.4019

EPHEMERIS_TYPE = 0
CLASSIFICATION_TYPE = U
NORAD_CAT_ID   = 12465
ELEMENT_SET_NO = 999
REV_AT_EPOCH   = 42766
BSTAR          = .4247E-3
MEAN_MOTION_DOT = .17076E-3
MEAN_MOTION_DDOT = 0

CCSDS_OMM_VERS = 2.0
CREATION_DATE  = 
ORIGINATOR     = 

OBJECT_NAME    = SL-3 R/B
OBJECT_ID      = 1981-103B
CENTER_NAME    = EARTH
REF_FRAME      = TEME
TIME_SYSTEM    = UTC
MEAN_ELEMENT_THEORY = SGP/SGP4

EPOCH          = 2025-12-29T20:06:36.307008
MEAN_MOTION    = 15.20450803
ECCENTRICITY   = .0013289
INCLINATION    = 81.1593
RA_OF_ASC_NODE = 295.3271
ARG_OF_PERICENTER = 153.3896
MEAN_ANOMALY   = 206.8019

EPHEMERIS_TYPE = 0
CLASSIFICATION_TYPE = U
NORAD_CAT_ID   = 12904
ELEMENT_SET_NO = 999
REV_AT_EPOCH   = 96261
BSTAR          = .44076E-3
MEAN_MOTION_DOT = .9667E-4
MEAN_MOTION_DDOT = 0

CCSDS_OMM_VERS = 2.0
CREATION_DATE  = 
ORIGINATOR     = 

OBJECT_NAME    = SL-3 R/B
OBJECT_ID      = 1982-013B
CENTER_NAME    = EARTH
REF_FRAME      = TEME
TIME_SYSTEM    = UTC
MEAN_ELEMENT_THEORY = SGP/SGP4

EPOCH          = 2025-12-29T19:29:12.098976
MEAN_MOTION    = 15.21246186
ECCENTRICITY   = .0023932
INCLINATION    = 81.1743
RA_OF_ASC_NODE = 242.6251
ARG_OF_PERICENTER = 56.3749
MEAN_ANOMALY   = 303.9761

EPHEMERIS_TYPE = 0
CLASSIFICATION_TYPE = U
NORAD_CAT_ID   = 13068
ELEMENT_SET_NO = 999
REV_AT_EPOCH   = 39372
BSTAR          = .31134E-3
MEAN_MOTION_DOT = .7032E-4
MEAN_MOTION_DDOT = 0

CCSDS_OMM_VERS = 2.0
CREATION_DATE  = 
ORIGINATOR     = 

OBJECT_NAME    = SL-3 R/B
OBJECT_ID      = 1982-039B
CENTER_NAME    = EARTH
REF_FRAME      = TEME
TIME_SYSTEM    = UTC
MEAN_ELEMENT_THEORY = SGP/SGP4

EPOCH          = 2025-12-29T19:22:01.155648
MEAN_MOTION    = 15.09632771
ECCENTRICITY   = .0029493
INCLINATION    = 81.1701
RA_OF_ASC_NODE = 296.4605
ARG_OF_PERICENTER = 194.2575
MEAN_ANOMALY   = 165.7822

EPHEMERIS_TYPE = 0
CLASSIFICATION_TYPE = U
NORAD_CAT_ID   = 13154
ELEMENT_SET_NO = 999
REV_AT_EPOCH   = 37109
BSTAR          = .28133E-3
MEAN_MOTION_DOT = .4593E-4
MEAN_MOTION_DDOT = 0

